<?xml version="1.0" encoding="UTF-8"?>                  
<gpx creator="caiacdemar.com" version="1.1"             
xsi:schemaLocation="http://www.topografix.com/GPX/1/1 http://www.topografix.com/GPX/11.xsd"  
xmlns="http://www.topografix.com/GPX/1/1"               
xmlns:xsi="http://www.w3.org/2001/XMLSchema-instance" > 
    <metadata>                                
      <name>Platja-Fonda---Cova-d_en-Gispert-costejant</name>                      
      <time>2026-05-13T16:52:22Z</time>   
    </metadata>                               
    <trk>                                     
        <name>Platja-Fonda---Cova-d_en-Gispert-costejant</name>                    
        <trkseg>                            
            <trkpt lat="41.941694153865" lon="3.2178034659639" >
                <ele>0</ele>
            </trkpt>
            <trkpt lat="41.941358091046" lon="3.2178342103432" >
                <ele>0</ele>
            </trkpt>
            <trkpt lat="41.941261958363" lon="3.2179682371687" >
                <ele>0</ele>
            </trkpt>
            <trkpt lat="41.941208551254" lon="3.2180974773207" >
                <ele>0</ele>
            </trkpt>
            <trkpt lat="41.941144462665" lon="3.218207570784" >
                <ele>0</ele>
            </trkpt>
            <trkpt lat="41.941096635915" lon="3.2183456760757" >
                <ele>0</ele>
            </trkpt>
            <trkpt lat="41.941061031088" lon="3.2185084229343" >
                <ele>0</ele>
            </trkpt>
            <trkpt lat="41.940979139912" lon="3.2185754363474" >
                <ele>0</ele>
            </trkpt>
            <trkpt lat="41.940861643693" lon="3.2185706496748" >
                <ele>0</ele>
            </trkpt>
            <trkpt lat="41.940690739714" lon="3.2185850096918" >
                <ele>0</ele>
            </trkpt>
            <trkpt lat="41.940551879894" lon="3.2185754363474" >
                <ele>0</ele>
            </trkpt>
            <trkpt lat="41.940416580291" lon="3.2184605562115" >
                <ele>0</ele>
            </trkpt>
            <trkpt lat="41.940263477763" lon="3.2183073826973" >
                <ele>0</ele>
            </trkpt>
            <trkpt lat="41.940120709047" lon="3.218143760222" >
                <ele>0</ele>
            </trkpt>
            <trkpt lat="41.93994268199" lon="3.2179810133634" >
                <ele>0</ele>
            </trkpt>
            <trkpt lat="41.939753972768" lon="3.2179187866228" >
                <ele>0</ele>
            </trkpt>
            <trkpt lat="41.939579505255" lon="3.2178613465549" >
                <ele>0</ele>
            </trkpt>
            <trkpt lat="41.939458445883" lon="3.2177847597982" >
                <ele>0</ele>
            </trkpt>
            <trkpt lat="41.939415718991" lon="3.2176411596284" >
                <ele>0</ele>
            </trkpt>
            <trkpt lat="41.939415718991" lon="3.2174927727868" >
                <ele>0</ele>
            </trkpt>
            <trkpt lat="41.939380113226" lon="3.2174066126848" >
                <ele>0</ele>
            </trkpt>
            <trkpt lat="41.93931958338" lon="3.2174353327188" >
                <ele>0</ele>
            </trkpt>
            <trkpt lat="41.939283977561" lon="3.2176124395944" >
                <ele>0</ele>
            </trkpt>
            <trkpt lat="41.939216326451" lon="3.2177273197302" >
                <ele>0</ele>
            </trkpt>
            <trkpt lat="41.939116542409" lon="3.2177368930748" >
                <ele>0</ele>
            </trkpt>
            <trkpt lat="41.938999042758" lon="3.2177129597135" >
                <ele>0</ele>
            </trkpt>
            <trkpt lat="41.938870861073" lon="3.2177081730417" >
                <ele>0</ele>
            </trkpt>
            <trkpt lat="41.938854908818" lon="3.2175579080482" >
                <ele>0</ele>
            </trkpt>
            <trkpt lat="41.938655892859" lon="3.2174858766916" >
                <ele>0</ele>
            </trkpt>
            <trkpt lat="41.938571693613" lon="3.2175784884363" >
                <ele>0</ele>
            </trkpt>
            <trkpt lat="41.938187864841" lon="3.2176333226617" >
                <ele>0</ele>
            </trkpt>
            <trkpt lat="41.937973762122" lon="3.2175181931717" >
                <ele>0</ele>
            </trkpt>
            <trkpt lat="41.937861357908" lon="3.2174966063924" >
                <ele>0</ele>
            </trkpt>
            <trkpt lat="41.937674017109" lon="3.2173958680895" >
                <ele>0</ele>
            </trkpt>
            <trkpt lat="41.937636548884" lon="3.2172735430072" >
                <ele>0</ele>
            </trkpt>
            <trkpt lat="41.937663311904" lon="3.2170792619936" >
                <ele>0</ele>
            </trkpt>
            <trkpt lat="41.937674017109" lon="3.2168921765735" >
                <ele>0</ele>
            </trkpt>
            <trkpt lat="41.937700780114" lon="3.2166763087806" >
                <ele>0</ele>
            </trkpt>
            <trkpt lat="41.937679369711" lon="3.2164604409877" >
                <ele>0</ele>
            </trkpt>
            <trkpt lat="41.937706132714" lon="3.2162229864156" >
                <ele>0</ele>
            </trkpt>
            <trkpt lat="41.937829242381" lon="3.2159927274369" >
                <ele>0</ele>
            </trkpt>
            <trkpt lat="41.937914883749" lon="3.2158128376103" >
                <ele>0</ele>
            </trkpt>
            <trkpt lat="41.937856005321" lon="3.2157264904931" >
                <ele>0</ele>
            </trkpt>
            <trkpt lat="41.937684722312" lon="3.2158128376103" >
                <ele>0</ele>
            </trkpt>
            <trkpt lat="41.937518791459" lon="3.2159783362511" >
                <ele>0</ele>
            </trkpt>
            <trkpt lat="41.937358212803" lon="3.2159351626925" >
                <ele>0</ele>
            </trkpt>
            <trkpt lat="41.937219044308" lon="3.215791250831" >
                <ele>0</ele>
            </trkpt>
            <trkpt lat="41.937197633743" lon="3.2155250138872" >
                <ele>0</ele>
            </trkpt>
            <trkpt lat="41.937176223171" lon="3.2153163416866" >
                <ele>0</ele>
            </trkpt>
            <trkpt lat="41.937090580811" lon="3.215237190163" >
                <ele>0</ele>
            </trkpt>
            <trkpt lat="41.93697817504" lon="3.2152803637215" >
                <ele>0</ele>
            </trkpt>
            <trkpt lat="41.936806889673" lon="3.2151796254186" >
                <ele>0</ele>
            </trkpt>
            <trkpt lat="41.936651661913" lon="3.2149781488127" >
                <ele>0</ele>
            </trkpt>
            <trkpt lat="41.936543195263" lon="3.2147989847416" >
                <ele>0</ele>
            </trkpt>
            <trkpt lat="41.936436185071" lon="3.2146311563233" >
                <ele>0</ele>
            </trkpt>
            <trkpt lat="41.93623405422" lon="3.2146311563233" >
                <ele>0</ele>
            </trkpt>
            <trkpt lat="41.936091373233" lon="3.2146791073" >
                <ele>0</ele>
            </trkpt>
            <trkpt lat="41.936103263328" lon="3.2149827968183" >
                <ele>0</ele>
            </trkpt>
            <trkpt lat="41.936079483136" lon="3.215422347438" >
                <ele>0</ele>
            </trkpt>
            <trkpt lat="41.936025977674" lon="3.2157500124446" >
                <ele>0</ele>
            </trkpt>
            <trkpt lat="41.935859515949" lon="3.2159578000097" >
                <ele>0</ele>
            </trkpt>
            <trkpt lat="41.93562171273" lon="3.2161176365981" >
                <ele>0</ele>
            </trkpt>
            <trkpt lat="41.93535418305" lon="3.2162455058683" >
                <ele>0</ele>
            </trkpt>
            <trkpt lat="41.934022479106" lon="3.2164011108502" >
                <ele>0</ele>
            </trkpt>
            <trkpt lat="41.934455010017" lon="3.2168964823274" >
                <ele>0</ele>
            </trkpt>
            <trkpt lat="41.934750451527" lon="3.2172382142138" >
                <ele>0</ele>
            </trkpt>
            <trkpt lat="41.935148951861" lon="3.2175337661155" >
                <ele>0</ele>
            </trkpt>
            <trkpt lat="41.935506225905" lon="3.2178108460229" >
                <ele>0</ele>
            </trkpt>
            <trkpt lat="41.935664250325" lon="3.218134105916" >
                <ele>0</ele>
            </trkpt>
            <trkpt lat="41.935787921331" lon="3.2185404897821" >
                <ele>0</ele>
            </trkpt>
            <trkpt lat="41.935760438905" lon="3.2188452776799" >
                <ele>0</ele>
            </trkpt>
            <trkpt lat="41.935671120937" lon="3.2192608975425" >
                <ele>0</ele>
            </trkpt>
            <trkpt lat="41.935423778221" lon="3.2194271454871" >
                <ele>0</ele>
            </trkpt>
            <trkpt lat="41.935278922383" lon="3.2194271454948" >
                <ele>0</ele>
            </trkpt>
            <trkpt lat="41.934903368698" lon="3.2191891482257" >
                <ele>0</ele>
            </trkpt>
            <trkpt lat="41.935241367114" lon="3.2195136899552" >
                <ele>0</ele>
            </trkpt>
            <trkpt lat="41.935252097193" lon="3.2198165955712" >
                <ele>0</ele>
            </trkpt>
            <trkpt lat="41.935246732154" lon="3.2200329567252" >
                <ele>0</ele>
            </trkpt>
            <trkpt lat="41.935182351647" lon="3.2203214382623" >
                <ele>0</ele>
            </trkpt>
            <trkpt lat="41.935048225382" lon="3.2205450114542" >
                <ele>0</ele>
            </trkpt>
            <trkpt lat="41.934892638561" lon="3.2205954957238" >
                <ele>0</ele>
            </trkpt>
            <trkpt lat="41.934613654345" lon="3.2204512549545" >
                <ele>0</ele>
            </trkpt>
            <trkpt lat="41.934340034026" lon="3.2201844095324" >
                <ele>0</ele>
            </trkpt>
            <trkpt lat="41.934077142802" lon="3.2199680483538" >
                <ele>0</ele>
            </trkpt>
            <trkpt lat="41.933894727851" lon="3.2196867788545" >
                <ele>0</ele>
            </trkpt>
            <trkpt lat="41.933696216871" lon="3.2193694491629" >
                <ele>0</ele>
            </trkpt>
            <trkpt lat="41.933599643739" lon="3.2190449074318" >
                <ele>0</ele>
            </trkpt>
            <trkpt lat="41.933497705273" lon="3.2188718185095" >
                <ele>0</ele>
            </trkpt>
            <trkpt lat="41.933454783766" lon="3.2185544888164" >
                <ele>0</ele>
            </trkpt>
            <trkpt lat="41.933379671057" lon="3.2185833369708" >
                <ele>0</ele>
            </trkpt>
            <trkpt lat="41.933422592615" lon="3.2189439388927" >
                <ele>0</ele>
            </trkpt>
            <trkpt lat="41.93334211467" lon="3.2192107843163" >
                <ele>0</ele>
            </trkpt>
            <trkpt lat="41.933159697617" lon="3.2192540565465" >
                <ele>0</ele>
            </trkpt>
            <trkpt lat="41.932982645273" lon="3.2192252083935" >
                <ele>0</ele>
            </trkpt>
            <trkpt lat="41.932762670464" lon="3.2190953917014" >
                <ele>0</ele>
            </trkpt>
            <trkpt lat="41.93257488649" lon="3.2189655750093" >
                <ele>0</ele>
            </trkpt>
            <trkpt lat="41.93246221584" lon="3.2189150907397" >
                <ele>0</ele>
            </trkpt>
            <trkpt lat="41.932424658913" lon="3.219088179662" >
                <ele>0</ele>
            </trkpt>
            <trkpt lat="41.932580251754" lon="3.2192468445086" >
                <ele>0</ele>
            </trkpt>
            <trkpt lat="41.93263390437" lon="3.2194776297383" >
                <ele>0</ele>
            </trkpt>
            <trkpt lat="41.93262853911" lon="3.2197516871998" >
                <ele>0</ele>
            </trkpt>
            <trkpt lat="41.932569521226" lon="3.219960836316" >
                <ele>0</ele>
            </trkpt>
            <trkpt lat="41.932365640839" lon="3.2200906530081" >
                <ele>0</ele>
            </trkpt>
            <trkpt lat="41.932193951588" lon="3.2198526557389" >
                <ele>0</ele>
            </trkpt>
            <trkpt lat="41.93199543531" lon="3.2198598677601" >
                <ele>0</ele>
            </trkpt>
            <trkpt lat="41.931635958323" lon="3.2195785982608" >
                <ele>0</ele>
            </trkpt>
            <trkpt lat="41.931190633277" lon="3.218806910146" >
                <ele>0</ele>
            </trkpt>
            <trkpt lat="41.930900902059" lon="3.2182010989157" >
                <ele>0</ele>
            </trkpt>
            <trkpt lat="41.930777497623" lon="3.2176962562245" >
                <ele>0</ele>
            </trkpt>
            <trkpt lat="41.93072384344" lon="3.2171120811024" >
                <ele>0</ele>
            </trkpt>
            <trkpt lat="41.930777497617" lon="3.2168740838348" >
                <ele>0</ele>
            </trkpt>
            <trkpt lat="41.930804324689" lon="3.2164702096813" >
                <ele>0</ele>
            </trkpt>
            <trkpt lat="41.930739939697" lon="3.2168019634502" >
                <ele>0</ele>
            </trkpt>
            <trkpt lat="41.930578976935" lon="3.2167370551034" >
                <ele>0</ele>
            </trkpt>
            <trkpt lat="41.930423379212" lon="3.2164629976419" >
                <ele>0</ele>
            </trkpt>
            <trkpt lat="41.930358993837" lon="3.2162250003728" >
                <ele>0</ele>
            </trkpt>
            <trkpt lat="41.930412560918" lon="3.2159036944269" >
                <ele>0</ele>
            </trkpt>
            <trkpt lat="41.930270472914" lon="3.2161252641045" >
                <ele>0</ele>
            </trkpt>
            <trkpt lat="41.930123360225" lon="3.2159959793925" >
                <ele>0</ele>
            </trkpt>
            <trkpt lat="41.930155073905" lon="3.215642907411" >
                <ele>0</ele>
            </trkpt>
            <trkpt lat="41.930026335027" lon="3.2159797910658" >
                <ele>0</ele>
            </trkpt>
            <trkpt lat="41.929929163366" lon="3.2158123878499" >
                <ele>0</ele>
            </trkpt>
            <trkpt lat="41.929841543825" lon="3.2154478491536" >
                <ele>0</ele>
            </trkpt>
            <trkpt lat="41.92974140706" lon="3.2154310242909" >
                <ele>0</ele>
            </trkpt>
            <trkpt lat="41.929720545214" lon="3.2155768397694" >
                <ele>0</ele>
            </trkpt>
            <trkpt lat="41.929712200474" lon="3.2157955629872" >
                <ele>0</ele>
            </trkpt>
            <trkpt lat="41.929645442512" lon="3.2159413784657" >
                <ele>0</ele>
            </trkpt>
            <trkpt lat="41.929507753996" lon="3.2159357701785" >
                <ele>0</ele>
            </trkpt>
            <trkpt lat="41.929395099534" lon="3.2158067795628" >
                <ele>0</ele>
            </trkpt>
            <trkpt lat="41.929336686027" lon="3.2156104894811" >
                <ele>0</ele>
            </trkpt>
            <trkpt lat="41.929299134461" lon="3.2154814988653" >
                <ele>0</ele>
            </trkpt>
            <trkpt lat="41.929148927977" lon="3.2155319734535" >
                <ele>0</ele>
            </trkpt>
            <trkpt lat="41.929148927977" lon="3.2157282635214" >
                <ele>0</ele>
            </trkpt>
            <trkpt lat="41.929182307226" lon="3.2160142861912" >
                <ele>0</ele>
            </trkpt>
            <trkpt lat="41.929211514055" lon="3.2162834839983" >
                <ele>0</ele>
            </trkpt>
            <trkpt lat="41.929153100383" lon="3.2167209304184" >
                <ele>0</ele>
            </trkpt>
            <trkpt lat="41.929069652189" lon="3.217135943704" >
                <ele>0</ele>
            </trkpt>
            <trkpt lat="41.929002893555" lon="3.2174443995237" >
                <ele>0</ele>
            </trkpt>
            <trkpt lat="41.928927790008" lon="3.2177360304808" >
                <ele>0</ele>
            </trkpt>
            <trkpt lat="41.928769237786" lon="3.2181005691782" >
                <ele>0</ele>
            </trkpt>
            <trkpt lat="41.928564788285" lon="3.2181959100674" >
                <ele>0</ele>
            </trkpt>
            <trkpt lat="41.928368683038" lon="3.2182688177873" >
                <ele>0</ele>
            </trkpt>
            <trkpt lat="41.928160059782" lon="3.2183249006638" >
                <ele>0</ele>
            </trkpt>
            <trkpt lat="41.927976470753" lon="3.2182800343628" >
                <ele>0</ele>
            </trkpt>
            <trkpt lat="41.927926400926" lon="3.2181566520343" >
                <ele>0</ele>
            </trkpt>
            <trkpt lat="41.927797053691" lon="3.2180108365557" >
                <ele>0</ele>
            </trkpt>
            <trkpt lat="41.92765518868" lon="3.2175733901202" >
                <ele>0</ele>
            </trkpt>
            <trkpt lat="41.928292406027" lon="3.2187684783008" >
                <ele>0</ele>
            </trkpt>
            <trkpt lat="41.930830787304" lon="3.2188669000703" >
                <ele>0</ele>
            </trkpt>
            <trkpt lat="41.932368411451" lon="3.2206384919218" >
                <ele>0</ele>
            </trkpt>
            <trkpt lat="41.93361312766" lon="3.220343226612" >
                <ele>0</ele>
            </trkpt>
            <trkpt lat="41.935345927425" lon="3.2209337572301" >
                <ele>0</ele>
            </trkpt>
            <trkpt lat="41.936273322044" lon="3.2188012855573" >
                <ele>0</ele>
            </trkpt>
            <trkpt lat="41.938151266738" lon="3.2185961276339" >
                <ele>0</ele>
            </trkpt>
            <trkpt lat="41.939786451451" lon="3.218580198279" >
                <ele>0</ele>
            </trkpt>
            <trkpt lat="41.941338653218" lon="3.2187235624722" >
                <ele>0</ele>
            </trkpt>
            <trkpt lat="41.941697679511" lon="3.2178497525603" >
                <ele>0</ele>
            </trkpt>
        </trkseg>
    </trk> 
</gpx>              
